{"type":"FeatureCollection","features":[
{"type":"Feature","properties":{"kind":"jetty","osmId":"way/157893377"},"geometry":{"type":"LineString","coordinates":[[-73.885114,40.560532],[-73.884843,40.560036]]}},
{"type":"Feature","properties":{"kind":"jetty","osmId":"way/157893378"},"geometry":{"type":"LineString","coordinates":[[-73.897272,40.557389],[-73.897067,40.556612]]}},
{"type":"Feature","properties":{"kind":"jetty","osmId":"way/157893392"},"geometry":{"type":"LineString","coordinates":[[-73.889932,40.559303],[-73.889637,40.558704]]}},
{"type":"Feature","properties":{"kind":"jetty","osmId":"way/157893397"},"geometry":{"type":"LineString","coordinates":[[-73.900742,40.557052],[-73.900702,40.556905],[-73.900627,40.556658],[-73.900566,40.556436]]}},
{"type":"Feature","properties":{"kind":"jetty","osmId":"way/157893410"},"geometry":{"type":"LineString","coordinates":[[-73.882623,40.56125],[-73.882379,40.560757]]}},
{"type":"Feature","properties":{"kind":"jetty","osmId":"way/157893414"},"geometry":{"type":"LineString","coordinates":[[-73.895215,40.557825],[-73.89488,40.557036]]}},
{"type":"Feature","properties":{"kind":"jetty","osmId":"way/157893420"},"geometry":{"type":"LineString","coordinates":[[-73.899977,40.557069],[-73.899812,40.556563]]}},
{"type":"Feature","properties":{"kind":"jetty","osmId":"way/157893447"},"geometry":{"type":"LineString","coordinates":[[-73.939867,40.550194],[-73.940003,40.549056],[-73.940379,40.545]]}},
{"type":"Feature","properties":{"kind":"jetty","osmId":"way/157893451"},"geometry":{"type":"LineString","coordinates":[[-73.887276,40.559983],[-73.886964,40.559417]]}},
{"type":"Feature","properties":{"kind":"jetty","osmId":"way/157893455"},"geometry":{"type":"LineString","coordinates":[[-73.899266,40.557163],[-73.899126,40.556677]]}},
{"type":"Feature","properties":{"kind":"jetty","osmId":"way/157893484"},"geometry":{"type":"LineString","coordinates":[[-73.880622,40.561938],[-73.880319,40.561368]]}},
{"type":"Feature","properties":{"kind":"jetty","osmId":"way/157893500"},"geometry":{"type":"LineString","coordinates":[[-73.89242,40.558381],[-73.892126,40.557872]]}},
{"type":"Feature","properties":{"kind":"jetty","osmId":"way/157893650"},"geometry":{"type":"LineString","coordinates":[[-73.811096,40.583523],[-73.810726,40.58356],[-73.810512,40.582872]]}},
{"type":"Feature","properties":{"kind":"jetty","osmId":"way/508260904"},"geometry":{"type":"LineString","coordinates":[[-73.808352,40.584102],[-73.808091,40.583357]]}},
{"type":"Feature","properties":{"kind":"jetty","osmId":"way/508261207"},"geometry":{"type":"LineString","coordinates":[[-73.805832,40.584612],[-73.805816,40.584566],[-73.805565,40.583881]]}},
{"type":"Feature","properties":{"kind":"jetty","osmId":"way/508261208"},"geometry":{"type":"LineString","coordinates":[[-73.803501,40.585042],[-73.803307,40.584365]]}},
{"type":"Feature","properties":{"kind":"jetty","osmId":"way/508261209"},"geometry":{"type":"LineString","coordinates":[[-73.80105,40.585355],[-73.800853,40.584757]]}},
{"type":"Feature","properties":{"kind":"jetty","osmId":"way/508261210"},"geometry":{"type":"LineString","coordinates":[[-73.788812,40.587835],[-73.788726,40.587554],[-73.788563,40.587007]]}},
{"type":"Feature","properties":{"kind":"jetty","osmId":"way/508261211"},"geometry":{"type":"LineString","coordinates":[[-73.791263,40.587429],[-73.791035,40.586698]]}},
{"type":"Feature","properties":{"kind":"jetty","osmId":"way/508261212"},"geometry":{"type":"LineString","coordinates":[[-73.793717,40.586876],[-73.793475,40.586277]]}},
{"type":"Feature","properties":{"kind":"jetty","osmId":"way/508261213"},"geometry":{"type":"LineString","coordinates":[[-73.796165,40.586475],[-73.79594,40.58579]]}},
{"type":"Feature","properties":{"kind":"jetty","osmId":"way/508261214"},"geometry":{"type":"LineString","coordinates":[[-73.798569,40.585947],[-73.7984,40.585385]]}},
{"type":"Feature","properties":{"kind":"jetty","osmId":"way/681025299"},"geometry":{"type":"LineString","coordinates":[[-73.872841,40.564364],[-73.872705,40.564132],[-73.872375,40.563567]]}},
{"type":"Feature","properties":{"kind":"jetty","osmId":"way/681025300"},"geometry":{"type":"LineString","coordinates":[[-73.868747,40.565925],[-73.868576,40.565626],[-73.86823,40.56502]]}},
{"type":"Feature","properties":{"kind":"jetty","osmId":"way/681025301"},"geometry":{"type":"LineString","coordinates":[[-73.870765,40.565048],[-73.870693,40.56493],[-73.870303,40.564282]]}},
{"type":"Feature","properties":{"kind":"jetty","osmId":"way/681025302"},"geometry":{"type":"LineString","coordinates":[[-73.874132,40.564119],[-73.873991,40.563816],[-73.873963,40.563757]]}},
{"type":"Feature","properties":{"kind":"jetty","osmId":"way/681025303"},"geometry":{"type":"LineString","coordinates":[[-73.874828,40.563806],[-73.874703,40.563591],[-73.874651,40.5635]]}},
{"type":"Feature","properties":{"kind":"jetty","osmId":"way/681025304"},"geometry":{"type":"LineString","coordinates":[[-73.875506,40.563626],[-73.875387,40.563381],[-73.875345,40.563292]]}},
{"type":"Feature","properties":{"kind":"jetty","osmId":"way/681025305"},"geometry":{"type":"LineString","coordinates":[[-73.876182,40.563383],[-73.876066,40.563148],[-73.876027,40.563063]]}},
{"type":"Feature","properties":{"kind":"jetty","osmId":"way/681025306"},"geometry":{"type":"LineString","coordinates":[[-73.876864,40.563113],[-73.876761,40.562891],[-73.876743,40.562852]]}},
{"type":"Feature","properties":{"kind":"jetty","osmId":"way/681025307"},"geometry":{"type":"LineString","coordinates":[[-73.877499,40.56286],[-73.877375,40.562664],[-73.877354,40.562632]]}},
{"type":"Feature","properties":{"kind":"jetty","osmId":"way/681025308"},"geometry":{"type":"LineString","coordinates":[[-73.878154,40.562583],[-73.878058,40.562423],[-73.878052,40.562412]]}},
{"type":"Feature","properties":{"kind":"jetty","osmId":"way/681025309"},"geometry":{"type":"LineString","coordinates":[[-73.878875,40.562374],[-73.878752,40.562189],[-73.878738,40.562167]]}},
{"type":"Feature","properties":{"kind":"jetty","osmId":"way/866821299"},"geometry":{"type":"LineString","coordinates":[[-73.866274,40.565511],[-73.866643,40.56615],[-73.866757,40.566347]]}},
{"type":"Feature","properties":{"kind":"jetty","osmId":"way/1223047558"},"geometry":{"type":"LineString","coordinates":[[-73.776643,40.590275],[-73.776625,40.590102],[-73.776604,40.589915]]}},
{"type":"Feature","properties":{"kind":"jetty","osmId":"way/1223047559"},"geometry":{"type":"LineString","coordinates":[[-73.7737,40.590634],[-73.773699,40.59045],[-73.773696,40.590131]]}},
{"type":"Feature","properties":{"kind":"jetty","osmId":"way/1223047560"},"geometry":{"type":"LineString","coordinates":[[-73.770789,40.590918],[-73.770817,40.590463]]}},
{"type":"Feature","properties":{"kind":"jetty","osmId":"way/1223047561"},"geometry":{"type":"LineString","coordinates":[[-73.767981,40.590918],[-73.767902,40.589582]]}},
{"type":"Feature","properties":{"kind":"jetty","osmId":"way/1223047562"},"geometry":{"type":"LineString","coordinates":[[-73.763653,40.591313],[-73.763572,40.590046]]}},
{"type":"Feature","properties":{"kind":"jetty","osmId":"way/1223047569"},"geometry":{"type":"LineString","coordinates":[[-73.77939,40.589609],[-73.779373,40.589787]]}},
{"type":"Feature","properties":{"kind":"jetty","osmId":"way/1223047570"},"geometry":{"type":"LineString","coordinates":[[-73.850913,40.571403],[-73.850525,40.570821]]}},
{"type":"Feature","properties":{"kind":"jetty","osmId":"way/1223047571"},"geometry":{"type":"LineString","coordinates":[[-73.851089,40.57145],[-73.851025,40.57136],[-73.850643,40.570768]]}},
{"type":"Feature","properties":{"kind":"jetty","osmId":"way/1223047572"},"geometry":{"type":"LineString","coordinates":[[-73.854612,40.569891],[-73.854249,40.5693]]}},
{"type":"Feature","properties":{"kind":"jetty","osmId":"way/1223047573"},"geometry":{"type":"LineString","coordinates":[[-73.859229,40.568567],[-73.859044,40.568337],[-73.85867,40.567764]]}},
{"type":"Feature","properties":{"kind":"jetty","osmId":"way/1223047574"},"geometry":{"type":"LineString","coordinates":[[-73.863284,40.567435],[-73.863069,40.567105],[-73.862963,40.566935],[-73.862653,40.56654]]}},
{"type":"Feature","properties":{"kind":"jetty","osmId":"way/1564596492"},"geometry":{"type":"LineString","coordinates":[[-73.813623,40.582934],[-73.813396,40.582383]]}},
{"type":"Feature","properties":{"kind":"jetty","osmId":"way/1564596493"},"geometry":{"type":"LineString","coordinates":[[-73.817839,40.581804],[-73.817528,40.581257]]}},
{"type":"Feature","properties":{"kind":"jetty","osmId":"way/1564596494"},"geometry":{"type":"LineString","coordinates":[[-73.822137,40.580685],[-73.821867,40.580058]]}},
{"type":"Feature","properties":{"kind":"jetty","osmId":"way/1564596495"},"geometry":{"type":"LineString","coordinates":[[-73.826564,40.579274],[-73.826319,40.578779]]}},
{"type":"Feature","properties":{"kind":"jetty","osmId":"way/1564596496"},"geometry":{"type":"LineString","coordinates":[[-73.830399,40.578123],[-73.830144,40.577641]]}},
{"type":"Feature","properties":{"kind":"jetty","osmId":"way/1564596497"},"geometry":{"type":"LineString","coordinates":[[-73.834539,40.576786],[-73.834308,40.576381]]}},
{"type":"Feature","properties":{"kind":"jetty","osmId":"way/1564596498"},"geometry":{"type":"LineString","coordinates":[[-73.838675,40.575395],[-73.838535,40.575123]]}},
{"type":"Feature","properties":{"kind":"jetty","osmId":"way/1564596499"},"geometry":{"type":"LineString","coordinates":[[-73.842776,40.574089],[-73.842599,40.573776]]}},
{"type":"Feature","properties":{"kind":"jetty","osmId":"way/1564596500"},"geometry":{"type":"LineString","coordinates":[[-73.846815,40.572734],[-73.846564,40.572308]]}},
{"type":"Feature","properties":{"kind":"boardwalk","name":"Ocean Promenade","osmId":"way/5701071"},"geometry":{"type":"LineString","coordinates":[[-73.830686,40.579549],[-73.831434,40.579309],[-73.833009,40.578776],[-73.833708,40.578544],[-73.834951,40.578148]]}},
{"type":"Feature","properties":{"kind":"boardwalk","name":"Ocean Promenade","osmId":"way/5701072"},"geometry":{"type":"LineString","coordinates":[[-73.840173,40.576125],[-73.841324,40.57574],[-73.841692,40.575616],[-73.841821,40.575572],[-73.842511,40.57534],[-73.842641,40.575296],[-73.842989,40.575178],[-73.84334,40.57506],[-73.843469,40.575016],[-73.84354,40.574992]]}},
{"type":"Feature","properties":{"kind":"boardwalk","name":"Boardwalk","osmId":"way/5703776"},"geometry":{"type":"LineString","coordinates":[[-73.76,40.592126],[-73.760214,40.592108],[-73.760597,40.592072],[-73.760646,40.592066],[-73.761453,40.591995],[-73.762103,40.591929],[-73.762335,40.5919],[-73.762475,40.591886],[-73.763858,40.591763],[-73.764253,40.591728],[-73.764825,40.591672],[-73.765216,40.591636],[-73.766178,40.591541],[-73.766772,40.591486],[-73.76765,40.591404],[-73.767707,40.5914],[-73.767773,40.591398],[-73.767834,40.591399],[-73.769925,40.591507],[-73.772407,40.591637],[-73.772485,40.591641],[-73.772553,40.591643],[-73.772613,40.591642],[-73.772683,40.591638],[-73.772954,40.591617],[-73.77429,40.591538],[-73.77469,40.591514],[-73.775116,40.591489],[-73.775543,40.591465],[-73.777379,40.591356],[-73.777454,40.591351],[-73.777521,40.591347],[-73.777612,40.591337],[-73.777703,40.591325],[-73.779518,40.591103],[-73.779909,40.591055],[-73.780541,40.59098],[-73.780619,40.590968],[-73.780691,40.590954],[-73.780764,40.590936],[-73.78182,40.590679],[-73.782193,40.590587],[-73.782236,40.590578],[-73.782285,40.590569],[-73.782347,40.59056],[-73.783814,40.590381],[-73.783868,40.590372],[-73.783921,40.590359],[-73.783967,40.590347],[-73.784336,40.590234],[-73.785834,40.589762],[-73.786068,40.589686],[-73.78761,40.589209],[-73.788148,40.58904],[-73.788627,40.588891],[-73.789119,40.588737],[-73.789307,40.588679],[-73.789815,40.588514],[-73.790048,40.588449],[-73.790937,40.588222],[-73.791459,40.588118],[-73.792785,40.587845],[-73.793433,40.58772],[-73.793688,40.587668],[-73.793972,40.587614],[-73.795285,40.587362]]}},
{"type":"Feature","properties":{"kind":"boardwalk","name":"Jacob Riis Boardwalk","osmId":"way/25529156"},"geometry":{"type":"LineString","coordinates":[[-73.879942,40.562657],[-73.879041,40.562964],[-73.879059,40.56326],[-73.879002,40.563487],[-73.878873,40.56372],[-73.878574,40.564045],[-73.878243,40.564313],[-73.877876,40.564526],[-73.877502,40.56473],[-73.877073,40.564924],[-73.876888,40.565001],[-73.876588,40.565096],[-73.876347,40.565177],[-73.876082,40.56524],[-73.875696,40.565322],[-73.875494,40.565357],[-73.875239,40.565402],[-73.874956,40.565422],[-73.874815,40.56543],[-73.874361,40.56541],[-73.873948,40.565344],[-73.873746,40.565282],[-73.873456,40.565167],[-73.87322,40.564954],[-73.87276,40.565106],[-73.87123,40.565617],[-73.870793,40.565565],[-73.869119,40.566152],[-73.868881,40.5664],[-73.868083,40.566665],[-73.867644,40.566819],[-73.86726,40.566954],[-73.866812,40.5671],[-73.865613,40.56749],[-73.86565,40.567549],[-73.86617,40.568375],[-73.866219,40.568448]]}},
{"type":"Feature","properties":{"kind":"boardwalk","name":"Ocean Promenade","osmId":"way/971010761"},"geometry":{"type":"LineString","coordinates":[[-73.84354,40.574992],[-73.843682,40.574944],[-73.844185,40.574774]]}},
{"type":"Feature","properties":{"kind":"boardwalk","name":"Ocean Promenade","osmId":"way/971010762"},"geometry":{"type":"LineString","coordinates":[[-73.839895,40.576472],[-73.840056,40.576419],[-73.839933,40.576207],[-73.840173,40.576125]]}},
{"type":"Feature","properties":{"kind":"boardwalk","name":"Ocean Promenade","osmId":"way/971010763"},"geometry":{"type":"LineString","coordinates":[[-73.837433,40.577314],[-73.837687,40.577227],[-73.837827,40.577184],[-73.838118,40.577076],[-73.838616,40.576904],[-73.838953,40.576785],[-73.839895,40.576472]]}},
{"type":"Feature","properties":{"kind":"boardwalk","name":"Ocean Promenade","osmId":"way/971010764"},"geometry":{"type":"LineString","coordinates":[[-73.834951,40.578148],[-73.835173,40.578073],[-73.835187,40.578068],[-73.835359,40.578009],[-73.83543,40.577985],[-73.835704,40.577891],[-73.835892,40.577827],[-73.836167,40.577739],[-73.836868,40.577503],[-73.837323,40.57735],[-73.837433,40.577314]]}},
{"type":"Feature","properties":{"kind":"boardwalk","name":"Ocean Promenade","osmId":"way/971010765"},"geometry":{"type":"LineString","coordinates":[[-73.829845,40.57988],[-73.829854,40.579862],[-73.829861,40.579846],[-73.830271,40.579712],[-73.83032,40.579666]]}},
{"type":"Feature","properties":{"kind":"boardwalk","name":"Ocean Promenade","osmId":"way/971010766"},"geometry":{"type":"LineString","coordinates":[[-73.83032,40.579666],[-73.830686,40.579549]]}},
{"type":"Feature","properties":{"kind":"boardwalk","name":"Boardwalk","osmId":"way/971010767"},"geometry":{"type":"LineString","coordinates":[[-73.830045,40.579295],[-73.830117,40.579276],[-73.83032,40.579666]]}},
{"type":"Feature","properties":{"kind":"boardwalk","name":"Boardwalk","osmId":"way/971010768"},"geometry":{"type":"LineString","coordinates":[[-73.827412,40.580041],[-73.828718,40.579678],[-73.830045,40.579295]]}},
{"type":"Feature","properties":{"kind":"boardwalk","name":"Boardwalk","osmId":"way/971010769"},"geometry":{"type":"LineString","coordinates":[[-73.824837,40.580782],[-73.824894,40.580767],[-73.825617,40.580554],[-73.825738,40.580519],[-73.826313,40.580355],[-73.827412,40.580041]]}},
{"type":"Feature","properties":{"kind":"boardwalk","name":"Boardwalk","osmId":"way/971010770"},"geometry":{"type":"LineString","coordinates":[[-73.823421,40.581169],[-73.823826,40.581059],[-73.824837,40.580782]]}},
{"type":"Feature","properties":{"kind":"boardwalk","name":"Boardwalk","osmId":"way/971010771"},"geometry":{"type":"LineString","coordinates":[[-73.821992,40.581547],[-73.822041,40.581533],[-73.822693,40.581352],[-73.82337,40.581183],[-73.823421,40.581169]]}},
{"type":"Feature","properties":{"kind":"boardwalk","name":"Boardwalk","osmId":"way/971010772"},"geometry":{"type":"LineString","coordinates":[[-73.818922,40.582373],[-73.819216,40.582284],[-73.820671,40.581889],[-73.820712,40.581879],[-73.82154,40.581672],[-73.821992,40.581547]]}},
{"type":"Feature","properties":{"kind":"boardwalk","name":"Boardwalk","osmId":"way/971010773"},"geometry":{"type":"LineString","coordinates":[[-73.815193,40.583426],[-73.815234,40.583416],[-73.815456,40.583352],[-73.815665,40.583293],[-73.817,40.582916],[-73.818285,40.582553],[-73.818878,40.582386],[-73.818922,40.582373]]}},
{"type":"Feature","properties":{"kind":"boardwalk","name":"Boardwalk","osmId":"way/971010774"},"geometry":{"type":"LineString","coordinates":[[-73.813977,40.583744],[-73.815193,40.583426]]}},
{"type":"Feature","properties":{"kind":"boardwalk","name":"Boardwalk","osmId":"way/971010775"},"geometry":{"type":"LineString","coordinates":[[-73.812945,40.583993],[-73.813257,40.583917],[-73.813977,40.583744]]}},
{"type":"Feature","properties":{"kind":"boardwalk","name":"Boardwalk","osmId":"way/971010776"},"geometry":{"type":"LineString","coordinates":[[-73.81212,40.584192],[-73.812632,40.584068],[-73.812945,40.583993]]}},
{"type":"Feature","properties":{"kind":"boardwalk","name":"Boardwalk","osmId":"way/971010777"},"geometry":{"type":"LineString","coordinates":[[-73.810269,40.58466],[-73.810324,40.58464],[-73.810452,40.584594],[-73.81212,40.584192]]}},
{"type":"Feature","properties":{"kind":"boardwalk","name":"Boardwalk","osmId":"way/971010778"},"geometry":{"type":"LineString","coordinates":[[-73.800148,40.586462],[-73.800833,40.586334],[-73.80102,40.586299],[-73.801357,40.586273],[-73.802212,40.586207],[-73.802897,40.586153],[-73.803704,40.586091],[-73.803918,40.586074],[-73.804252,40.586049],[-73.805173,40.58598],[-73.805761,40.585936],[-73.806288,40.585897],[-73.807062,40.585838],[-73.807207,40.585784],[-73.807868,40.585548],[-73.809098,40.585089],[-73.809469,40.584951],[-73.809543,40.584923],[-73.810269,40.58466]]}},
{"type":"Feature","properties":{"kind":"boardwalk","name":"Boardwalk","osmId":"way/971010779"},"geometry":{"type":"LineString","coordinates":[[-73.799396,40.586598],[-73.799979,40.586491],[-73.800148,40.586462]]}},
{"type":"Feature","properties":{"kind":"boardwalk","name":"Boardwalk","osmId":"way/971010780"},"geometry":{"type":"LineString","coordinates":[[-73.795879,40.58725],[-73.796396,40.587147],[-73.797446,40.586965],[-73.798503,40.586762],[-73.798812,40.586705],[-73.79921,40.586632],[-73.799396,40.586598]]}},
{"type":"Feature","properties":{"kind":"boardwalk","name":"Boardwalk","osmId":"way/971010781"},"geometry":{"type":"LineString","coordinates":[[-73.795285,40.587362],[-73.795506,40.587322],[-73.795879,40.58725]]}},
{"type":"Feature","properties":{"kind":"street-end","name":"Beach 79th St","osmId":"way/5701147"},"geometry":{"type":"Point","coordinates":[-73.805156,40.588228]}},
{"type":"Feature","properties":{"kind":"street-end","name":"Beach 143rd St","osmId":"way/5701343"},"geometry":{"type":"Point","coordinates":[-73.858183,40.569529]}},
{"type":"Feature","properties":{"kind":"street-end","name":"Beach 49th St","osmId":"way/5701382"},"geometry":{"type":"Point","coordinates":[-73.780078,40.592726]}},
{"type":"Feature","properties":{"kind":"street-end","name":"Beach 131st St","osmId":"way/5701419"},"geometry":{"type":"Point","coordinates":[-73.848448,40.573318]}},
{"type":"Feature","properties":{"kind":"street-end","name":"Beach 147th St","osmId":"way/5701587"},"geometry":{"type":"Point","coordinates":[-73.861512,40.568271]}},
{"type":"Feature","properties":{"kind":"street-end","name":"Beach 140th St","osmId":"way/5701621"},"geometry":{"type":"Point","coordinates":[-73.855663,40.570484]}},
{"type":"Feature","properties":{"kind":"street-end","name":"Beach 132nd St","osmId":"way/5701677"},"geometry":{"type":"Point","coordinates":[-73.849252,40.573007]}},
{"type":"Feature","properties":{"kind":"street-end","name":"Beach 89th St","osmId":"way/5702359"},"geometry":{"type":"Point","coordinates":[-73.813707,40.588199]}},
{"type":"Feature","properties":{"kind":"street-end","name":"Beach 126th St","osmId":"way/5702394"},"geometry":{"type":"Point","coordinates":[-73.844307,40.574882]}},
{"type":"Feature","properties":{"kind":"street-end","name":"Beach 135th St","osmId":"way/5702659"},"geometry":{"type":"Point","coordinates":[-73.851651,40.572063]}},
{"type":"Feature","properties":{"kind":"street-end","name":"Beach 111th St","osmId":"way/5702663"},"geometry":{"type":"Point","coordinates":[-73.831888,40.579297]}},
{"type":"Feature","properties":{"kind":"street-end","name":"Beach 142nd St","osmId":"way/5703040"},"geometry":{"type":"Point","coordinates":[-73.857298,40.569891]}},
{"type":"Feature","properties":{"kind":"street-end","name":"Beach 105th St","osmId":"way/5703165"},"geometry":{"type":"Point","coordinates":[-73.825084,40.581141]}},
{"type":"Feature","properties":{"kind":"street-end","name":"Beach 92nd St","osmId":"way/5703501"},"geometry":{"type":"Point","coordinates":[-73.813873,40.584191]}},
{"type":"Feature","properties":{"kind":"street-end","name":"Beach 136th St","osmId":"way/5703781"},"geometry":{"type":"Point","coordinates":[-73.852458,40.571747]}},
{"type":"Feature","properties":{"kind":"street-end","name":"Beach 112th St","osmId":"way/5703800"},"geometry":{"type":"Point","coordinates":[-73.832709,40.579019]}},
{"type":"Feature","properties":{"kind":"street-end","name":"Beach 208th St","osmId":"way/5704085"},"geometry":{"type":"Point","coordinates":[-73.917141,40.559156]}},
{"type":"Feature","properties":{"kind":"street-end","name":"Beach 139th St","osmId":"way/5704352"},"geometry":{"type":"Point","coordinates":[-73.854863,40.570793]}},
{"type":"Feature","properties":{"kind":"street-end","name":"Beach 48th St","osmId":"way/5704786"},"geometry":{"type":"Point","coordinates":[-73.7788,40.593387]}},
{"type":"Feature","properties":{"kind":"street-end","name":"Beach 57th St","osmId":"way/5705124"},"geometry":{"type":"Point","coordinates":[-73.787007,40.592568]}},
{"type":"Feature","properties":{"kind":"street-end","name":"Beach 203rd St","osmId":"way/5705178"},"geometry":{"type":"Point","coordinates":[-73.912534,40.559371]}},
{"type":"Feature","properties":{"kind":"street-end","name":"Beach 141st St","osmId":"way/5705179"},"geometry":{"type":"Point","coordinates":[-73.856461,40.570174]}},
{"type":"Feature","properties":{"kind":"street-end","name":"Beach 27th St","osmId":"way/5705485"},"geometry":{"type":"Point","coordinates":[-73.7601,40.594947]}},
{"type":"Feature","properties":{"kind":"street-end","name":"Beach 149th St","osmId":"way/5705610"},"geometry":{"type":"Point","coordinates":[-73.863096,40.56762]}},
{"type":"Feature","properties":{"kind":"street-end","name":"Beach 125th St","osmId":"way/5705629"},"geometry":{"type":"Point","coordinates":[-73.843485,40.575187]}},
{"type":"Feature","properties":{"kind":"street-end","name":"Beach 227th St","osmId":"way/5705706"},"geometry":{"type":"Point","coordinates":[-73.932499,40.551797]}},
{"type":"Feature","properties":{"kind":"street-end","name":"Beach 99th St","osmId":"way/5706007"},"geometry":{"type":"Point","coordinates":[-73.819427,40.582764]}},
{"type":"Feature","properties":{"kind":"street-end","name":"Beach 134th St","osmId":"way/5706010"},"geometry":{"type":"Point","coordinates":[-73.850857,40.572373]}},
{"type":"Feature","properties":{"kind":"street-end","name":"Beach 110th St","osmId":"way/5706015"},"geometry":{"type":"Point","coordinates":[-73.831075,40.579581]}},
{"type":"Feature","properties":{"kind":"street-end","name":"Beach 102nd St","osmId":"way/5706082"},"geometry":{"type":"Point","coordinates":[-73.821809,40.582027]}},
{"type":"Feature","properties":{"kind":"street-end","name":"Beach 210th St","osmId":"way/5706239"},"geometry":{"type":"Point","coordinates":[-73.919591,40.55931]}},
{"type":"Feature","properties":{"kind":"street-end","name":"Beach 128th St","osmId":"way/5706246"},"geometry":{"type":"Point","coordinates":[-73.846017,40.57429]}},
{"type":"Feature","properties":{"kind":"street-end","name":"Beach 104th St","osmId":"way/5706251"},"geometry":{"type":"Point","coordinates":[-73.825578,40.583839]}},
{"type":"Feature","properties":{"kind":"street-end","name":"Beach 204th St","osmId":"way/5706530"},"geometry":{"type":"Point","coordinates":[-73.912743,40.560438]}},
{"type":"Feature","properties":{"kind":"street-end","name":"Beach 213th St","osmId":"way/5706908"},"geometry":{"type":"Point","coordinates":[-73.922185,40.558817]}},
{"type":"Feature","properties":{"kind":"street-end","name":"Beach 123rd St","osmId":"way/5706913"},"geometry":{"type":"Point","coordinates":[-73.841844,40.575747]}},
{"type":"Feature","properties":{"kind":"street-end","name":"Beach 46th St","osmId":"way/5706951"},"geometry":{"type":"Point","coordinates":[-73.777159,40.593547]}},
{"type":"Feature","properties":{"kind":"street-end","name":"Beach 144th St","osmId":"way/5707037"},"geometry":{"type":"Point","coordinates":[-73.858978,40.569217]}},
{"type":"Feature","properties":{"kind":"street-end","name":"Beach 85th St","osmId":"way/5707048"},"geometry":{"type":"Point","coordinates":[-73.81092,40.589417]}},
{"type":"Feature","properties":{"kind":"street-end","name":"Beach 120th St","osmId":"way/5707051"},"geometry":{"type":"Point","coordinates":[-73.839465,40.576754]}},
{"type":"Feature","properties":{"kind":"street-end","name":"Beach 207th St","osmId":"way/5707111"},"geometry":{"type":"Point","coordinates":[-73.913729,40.556904]}},
{"type":"Feature","properties":{"kind":"street-end","name":"Beach 77th St","osmId":"way/5707334"},"geometry":{"type":"Point","coordinates":[-73.804029,40.586569]}},
{"type":"Feature","properties":{"kind":"street-end","name":"Beach 138th St","osmId":"way/5707340"},"geometry":{"type":"Point","coordinates":[-73.854059,40.571117]}},
{"type":"Feature","properties":{"kind":"street-end","name":"Beach 31st St","osmId":"way/5707543"},"geometry":{"type":"Point","coordinates":[-73.764148,40.593231]}},
{"type":"Feature","properties":{"kind":"street-end","name":"Beach 106th St","osmId":"way/5707625"},"geometry":{"type":"Point","coordinates":[-73.827689,40.582588]}},
{"type":"Feature","properties":{"kind":"street-end","name":"Beach 64th St","osmId":"way/5707631"},"geometry":{"type":"Point","coordinates":[-73.793264,40.593023]}},
{"type":"Feature","properties":{"kind":"street-end","name":"Beach 40th St","osmId":"way/5707639"},"geometry":{"type":"Point","coordinates":[-73.771891,40.593644]}},
{"type":"Feature","properties":{"kind":"street-end","name":"Beach 133rd St","osmId":"way/5707937"},"geometry":{"type":"Point","coordinates":[-73.850054,40.572692]}},
{"type":"Feature","properties":{"kind":"street-end","name":"Beach 201st St","osmId":"way/5708106"},"geometry":{"type":"Point","coordinates":[-73.910088,40.557328]}},
{"type":"Feature","properties":{"kind":"street-end","name":"Beach 130th St","osmId":"way/5708130"},"geometry":{"type":"Point","coordinates":[-73.847642,40.573628]}},
{"type":"Feature","properties":{"kind":"street-end","name":"Beach 122nd St","osmId":"way/5708251"},"geometry":{"type":"Point","coordinates":[-73.841002,40.576001]}},
{"type":"Feature","properties":{"kind":"street-end","name":"Beach 148th St","osmId":"way/5708454"},"geometry":{"type":"Point","coordinates":[-73.86231,40.567954]}},
{"type":"Feature","properties":{"kind":"street-end","name":"Beach 80th St","osmId":"way/5708468"},"geometry":{"type":"Point","coordinates":[-73.806335,40.588081]}},
{"type":"Feature","properties":{"kind":"street-end","name":"Beach 124th St","osmId":"way/5708486"},"geometry":{"type":"Point","coordinates":[-73.842649,40.575474]}},
{"type":"Feature","properties":{"kind":"street-end","name":"Beach 72nd St","osmId":"way/5708601"},"geometry":{"type":"Point","coordinates":[-73.800494,40.591435]}},
{"type":"Feature","properties":{"kind":"street-end","name":"Beach 53rd St","osmId":"way/5708616"},"geometry":{"type":"Point","coordinates":[-73.783348,40.592749]}},
{"type":"Feature","properties":{"kind":"street-end","name":"Beach 74th St","osmId":"way/5708889"},"geometry":{"type":"Point","coordinates":[-73.801715,40.586645]}},
{"type":"Feature","properties":{"kind":"street-end","name":"Beach 127th St","osmId":"way/5709097"},"geometry":{"type":"Point","coordinates":[-73.845151,40.574582]}},
{"type":"Feature","properties":{"kind":"street-end","name":"Beach 93rd St","osmId":"way/5709286"},"geometry":{"type":"Point","coordinates":[-73.814764,40.584077]}},
{"type":"Feature","properties":{"kind":"street-end","name":"Beach 90th St","osmId":"way/5709532"},"geometry":{"type":"Point","coordinates":[-73.81238,40.584673]}},
{"type":"Feature","properties":{"kind":"street-end","name":"Beach 212th St","osmId":"way/5709643"},"geometry":{"type":"Point","coordinates":[-73.921427,40.558693]}},
{"type":"Feature","properties":{"kind":"street-end","name":"Beach 82nd St","osmId":"way/5709644"},"geometry":{"type":"Point","coordinates":[-73.809103,40.589969]}},
{"type":"Feature","properties":{"kind":"street-end","name":"Beach 63rd St","osmId":"way/5709649"},"geometry":{"type":"Point","coordinates":[-73.792222,40.592013]}},
{"type":"Feature","properties":{"kind":"street-end","name":"Beach 69th St","osmId":"way/5709683"},"geometry":{"type":"Point","coordinates":[-73.797446,40.586965]}},
{"type":"Feature","properties":{"kind":"street-end","name":"Beach 45th St","osmId":"way/5709697"},"geometry":{"type":"Point","coordinates":[-73.776316,40.593616]}},
{"type":"Feature","properties":{"kind":"street-end","name":"Beach 84th St","osmId":"way/5709901"},"geometry":{"type":"Point","coordinates":[-73.809618,40.585344]}},
{"type":"Feature","properties":{"kind":"street-end","name":"Beach 39th St","osmId":"way/5710053"},"geometry":{"type":"Point","coordinates":[-73.771214,40.59441]}},
{"type":"Feature","properties":{"kind":"street-end","name":"Beach 137th St","osmId":"way/5710188"},"geometry":{"type":"Point","coordinates":[-73.853255,40.571429]}},
{"type":"Feature","properties":{"kind":"street-end","name":"Beach 113th St","osmId":"way/5710201"},"geometry":{"type":"Point","coordinates":[-73.833536,40.578743]}},
{"type":"Feature","properties":{"kind":"street-end","name":"Beach 129th St","osmId":"way/5710555"},"geometry":{"type":"Point","coordinates":[-73.846835,40.573948]}},
{"type":"Feature","properties":{"kind":"street-end","name":"Beach 146th St","osmId":"way/5710560"},"geometry":{"type":"Point","coordinates":[-73.860597,40.568615]}},
{"type":"Feature","properties":{"kind":"street-end","name":"Beach 222nd St","osmId":"way/5710611"},"geometry":{"type":"Point","coordinates":[-73.92909,40.553021]}},
{"type":"Feature","properties":{"kind":"street-end","name":"Beach 81st St","osmId":"way/46945462"},"geometry":{"type":"Point","coordinates":[-73.806529,40.586277]}},
{"type":"Feature","properties":{"kind":"street-end","name":"Beach 100th St","osmId":"way/46945485"},"geometry":{"type":"Point","coordinates":[-73.820268,40.582523]}},
{"type":"Feature","properties":{"kind":"street-end","name":"Beach 96th St","osmId":"way/46945487"},"geometry":{"type":"Point","coordinates":[-73.816932,40.583499]}},
{"type":"Feature","properties":{"kind":"street-end","name":"Beach 117th St","osmId":"way/157892023"},"geometry":{"type":"Point","coordinates":[-73.837056,40.577694]}},
{"type":"Feature","properties":{"kind":"street-end","name":"Beach 119th St","osmId":"way/157892025"},"geometry":{"type":"Point","coordinates":[-73.838654,40.577044]}},
{"type":"Feature","properties":{"kind":"street-end","name":"Beach 121st St","osmId":"way/157892027"},"geometry":{"type":"Point","coordinates":[-73.840206,40.576325]}},
{"type":"Feature","properties":{"kind":"street-end","name":"Beach 145th St","osmId":"way/157892051"},"geometry":{"type":"Point","coordinates":[-73.859798,40.568914]}},
{"type":"Feature","properties":{"kind":"street-end","name":"Beach 42nd St","osmId":"way/157892062"},"geometry":{"type":"Point","coordinates":[-73.773626,40.593365]}},
{"type":"Feature","properties":{"kind":"street-end","name":"Beach 65th St","osmId":"way/157892073"},"geometry":{"type":"Point","coordinates":[-73.794031,40.591613]}},
{"type":"Feature","properties":{"kind":"street-end","name":"Beach 66th St","osmId":"way/157892074"},"geometry":{"type":"Point","coordinates":[-73.794999,40.591337]}},
{"type":"Feature","properties":{"kind":"street-end","name":"Beach 68th St","osmId":"way/157892075"},"geometry":{"type":"Point","coordinates":[-73.79702,40.591341]}},
{"type":"Feature","properties":{"kind":"street-end","name":"Beach 70th St","osmId":"way/157892077"},"geometry":{"type":"Point","coordinates":[-73.798894,40.590845]}},
{"type":"Feature","properties":{"kind":"street-end","name":"Beach 38th St","osmId":"way/157893188"},"geometry":{"type":"Point","coordinates":[-73.769925,40.591507]}},
{"type":"Feature","properties":{"kind":"street-end","name":"Beach 118th St","osmId":"way/157893246"},"geometry":{"type":"Point","coordinates":[-73.837323,40.57735]}},
{"type":"Feature","properties":{"kind":"street-end","name":"Beach 29th St","osmId":"way/157893250"},"geometry":{"type":"Point","coordinates":[-73.761453,40.591995]}},
{"type":"Feature","properties":{"kind":"street-end","name":"Beach 60th St","osmId":"way/160181044"},"geometry":{"type":"Point","coordinates":[-73.789815,40.588514]}},
{"type":"Feature","properties":{"kind":"street-end","name":"Beach 67th St","osmId":"way/216937801"},"geometry":{"type":"Point","coordinates":[-73.795651,40.587839]}},
{"type":"Feature","properties":{"kind":"street-end","name":"Beach 169th St","osmId":"way/226880982"},"geometry":{"type":"Point","coordinates":[-73.879942,40.562657]}},
{"type":"Feature","properties":{"kind":"street-end","name":"Beach 184th St","osmId":"way/509507325"},"geometry":{"type":"Point","coordinates":[-73.892259,40.5652]}},
{"type":"Feature","properties":{"kind":"street-end","name":"Beach 75th St","osmId":"way/526910347"},"geometry":{"type":"Point","coordinates":[-73.802992,40.590327]}},
{"type":"Feature","properties":{"kind":"street-end","name":"Beach 91st St","osmId":"way/526925985"},"geometry":{"type":"Point","coordinates":[-73.812999,40.584516]}},
{"type":"Feature","properties":{"kind":"street-end","name":"Beach 97th St","osmId":"way/526926566"},"geometry":{"type":"Point","coordinates":[-73.817745,40.583259]}},
{"type":"Feature","properties":{"kind":"street-end","name":"Beach 181st St","osmId":"way/571279790"},"geometry":{"type":"Point","coordinates":[-73.891523,40.565101]}},
{"type":"Feature","properties":{"kind":"street-end","name":"Beach 193rd St","osmId":"way/585056730"},"geometry":{"type":"Point","coordinates":[-73.90127,40.557921]}},
{"type":"Feature","properties":{"kind":"street-end","name":"Beach 34th St","osmId":"way/673710234"},"geometry":{"type":"Point","coordinates":[-73.765698,40.591786]}},
{"type":"Feature","properties":{"kind":"street-end","name":"Beach 43rd St","osmId":"way/673902071"},"geometry":{"type":"Point","coordinates":[-73.774542,40.59375]}},
{"type":"Feature","properties":{"kind":"street-end","name":"Beach 28th St","osmId":"way/831853427"},"geometry":{"type":"Point","coordinates":[-73.760232,40.592234]}},
{"type":"Feature","properties":{"kind":"street-end","name":"Beach 30th St","osmId":"way/831853430"},"geometry":{"type":"Point","coordinates":[-73.762475,40.591886]}},
{"type":"Feature","properties":{"kind":"street-end","name":"Beach 32nd St","osmId":"way/831853434"},"geometry":{"type":"Point","coordinates":[-73.763858,40.591763]}},
{"type":"Feature","properties":{"kind":"street-end","name":"Beach 33rd St","osmId":"way/831853436"},"geometry":{"type":"Point","coordinates":[-73.764825,40.591672]}},
{"type":"Feature","properties":{"kind":"street-end","name":"Beach 35th St","osmId":"way/831853440"},"geometry":{"type":"Point","coordinates":[-73.766772,40.591486]}},
{"type":"Feature","properties":{"kind":"street-end","name":"Beach 41st St","osmId":"way/831853442"},"geometry":{"type":"Point","coordinates":[-73.772553,40.591643]}},
{"type":"Feature","properties":{"kind":"street-end","name":"Beach 101st St","osmId":"way/831853461"},"geometry":{"type":"Point","coordinates":[-73.820712,40.581879]}},
{"type":"Feature","properties":{"kind":"street-end","name":"Beach 114th St","osmId":"way/831853475"},"geometry":{"type":"Point","coordinates":[-73.833708,40.578544]}},
{"type":"Feature","properties":{"kind":"street-end","name":"Beach 115th St","osmId":"way/831853476"},"geometry":{"type":"Point","coordinates":[-73.835187,40.578068]}},
{"type":"Feature","properties":{"kind":"street-end","name":"Beach 214th St","osmId":"way/899353928"},"geometry":{"type":"Point","coordinates":[-73.92268,40.554484]}},
{"type":"Feature","properties":{"kind":"street-end","name":"Beach 178th St","osmId":"way/907252660"},"geometry":{"type":"Point","coordinates":[-73.889224,40.56584]}},
{"type":"Feature","properties":{"kind":"street-end","name":"Beach 36th St","osmId":"way/917639471"},"geometry":{"type":"Point","coordinates":[-73.767889,40.591678]}},
{"type":"Feature","properties":{"kind":"street-end","name":"Beach 94th St","osmId":"way/1038771001"},"geometry":{"type":"Point","coordinates":[-73.815244,40.583828]}},
{"type":"Feature","properties":{"kind":"street-end","name":"Beach 25th St","osmId":"way/1039758405"},"geometry":{"type":"Point","coordinates":[-73.760393,40.598465]}},
{"type":"Feature","properties":{"kind":"street-end","name":"Beach 95th St","osmId":"way/1049864949"},"geometry":{"type":"Point","coordinates":[-73.816067,40.583749]}},
{"type":"Feature","properties":{"kind":"street-end","name":"Beach 220th St","osmId":"way/1076229406"},"geometry":{"type":"Point","coordinates":[-73.927042,40.553106]}},
{"type":"Feature","properties":{"kind":"street-end","name":"Beach 219th St","osmId":"way/1076229412"},"geometry":{"type":"Point","coordinates":[-73.92622,40.553087]}},
{"type":"Feature","properties":{"kind":"street-end","name":"Beach 221st St","osmId":"way/1076229413"},"geometry":{"type":"Point","coordinates":[-73.928053,40.553127]}},
{"type":"Feature","properties":{"kind":"street-end","name":"Beach 217th St","osmId":"way/1076230295"},"geometry":{"type":"Point","coordinates":[-73.925262,40.553711]}},
{"type":"Feature","properties":{"kind":"street-end","name":"Beach 216th St","osmId":"way/1076230296"},"geometry":{"type":"Point","coordinates":[-73.924482,40.554225]}},
{"type":"Feature","properties":{"kind":"street-end","name":"Beach 215th St","osmId":"way/1076230297"},"geometry":{"type":"Point","coordinates":[-73.923654,40.554477]}},
{"type":"Feature","properties":{"kind":"street-end","name":"Beach 209th St","osmId":"way/1076236296"},"geometry":{"type":"Point","coordinates":[-73.917507,40.560888]}},
{"type":"Feature","properties":{"kind":"street-end","name":"Beach 98th St","osmId":"way/1077002121"},"geometry":{"type":"Point","coordinates":[-73.818285,40.582553]}},
{"type":"Feature","properties":{"kind":"street-end","name":"Beach 61st St","osmId":"way/1077002137"},"geometry":{"type":"Point","coordinates":[-73.790048,40.588449]}},
{"type":"Feature","properties":{"kind":"street-end","name":"Beach 62nd St","osmId":"way/1079039099"},"geometry":{"type":"Point","coordinates":[-73.790937,40.588222]}},
{"type":"Feature","properties":{"kind":"street-end","name":"Beach 88th St","osmId":"way/1084571280"},"geometry":{"type":"Point","coordinates":[-73.813058,40.587331]}},
{"type":"Feature","properties":{"kind":"street-end","name":"Beach 108th St","osmId":"way/1092985614"},"geometry":{"type":"Point","coordinates":[-73.828521,40.579932]}},
{"type":"Feature","properties":{"kind":"street-end","name":"Beach 109th St","osmId":"way/1219103995"},"geometry":{"type":"Point","coordinates":[-73.829835,40.579914]}},
{"type":"Feature","properties":{"kind":"street-end","name":"Beach 116th St","osmId":"way/1219371325"},"geometry":{"type":"Point","coordinates":[-73.836249,40.578134]}},
{"type":"Feature","properties":{"kind":"street-end","name":"Beach 73rd St","osmId":"way/1219549793"},"geometry":{"type":"Point","coordinates":[-73.800544,40.586906]}},
{"type":"Feature","properties":{"kind":"street-end","name":"Beach 86th St","osmId":"way/1219549811"},"geometry":{"type":"Point","coordinates":[-73.811283,40.587557]}},
{"type":"Feature","properties":{"kind":"street-end","name":"Beach 87th St","osmId":"way/1219668476"},"geometry":{"type":"Point","coordinates":[-73.812162,40.587452]}},
{"type":"Feature","properties":{"kind":"street-end","name":"Beach 56th St","osmId":"way/1219673490"},"geometry":{"type":"Point","coordinates":[-73.786563,40.592086]}},
{"type":"Feature","properties":{"kind":"street-end","name":"Beach 58th St","osmId":"way/1221055502"},"geometry":{"type":"Point","coordinates":[-73.788064,40.594466]}},
{"type":"Feature","properties":{"kind":"street-end","name":"Beach 218th St","osmId":"way/1317520700"},"geometry":{"type":"Point","coordinates":[-73.926732,40.558563]}},
{"type":"Feature","properties":{"kind":"street-end","name":"Beach 50th St","osmId":"way/1443044198"},"geometry":{"type":"Point","coordinates":[-73.779909,40.591055]}},
{"type":"Feature","properties":{"kind":"street-end","name":"Beach 54th St","osmId":"way/1443044203"},"geometry":{"type":"Point","coordinates":[-73.783921,40.590359]}},
{"type":"Feature","properties":{"kind":"street-end","name":"Beach 52nd St","osmId":"way/1443044208"},"geometry":{"type":"Point","coordinates":[-73.782193,40.590587]}},
{"type":"Feature","properties":{"kind":"street-end","name":"Beach 47th St","osmId":"way/1443044217"},"geometry":{"type":"Point","coordinates":[-73.777379,40.591356]}},
{"type":"Feature","properties":{"kind":"street-end","name":"Beach 44th St","osmId":"way/1443044224"},"geometry":{"type":"Point","coordinates":[-73.775116,40.591489]}},
{"type":"Feature","properties":{"kind":"street-end","name":"Beach 37th St","osmId":"way/1443044241"},"geometry":{"type":"Point","coordinates":[-73.768993,40.5922]}},
{"type":"Feature","properties":{"kind":"street-end","name":"Beach 51st St","osmId":"way/1448692835"},"geometry":{"type":"Point","coordinates":[-73.781835,40.595251]}},
{"type":"Feature","properties":{"kind":"street-end","name":"Beach 59th St","osmId":"way/1515692232"},"geometry":{"type":"Point","coordinates":[-73.788627,40.588891]}}
]}
